OBJECT_NAME,OBJECT_ID,EPOCH,MEAN_MOTION,ECCENTRICITY,INCLINATION,RA_OF_ASC_NODE,ARG_OF_PERICENTER,MEAN_ANOMALY,EPHEMERIS_TYPE,CLASSIFICATION_TYPE,NORAD_CAT_ID,ELEMENT_SET_NO,REV_AT_EPOCH,BSTAR,MEAN_MOTION_DOT,MEAN_MOTION_DDOT
HAIYANG-2D,2021-043A,2026-06-11T15:41:01.410720,13.83375728,.00113972,65.9995,318.4770,269.8027,90.1735,0,U,48621,999,25578,.65822136E-4,-.9E-7,0
2021-050D,2021-050D,2026-06-11T14:53:48.535296,15.23278320,.00039922,97.3340,238.7836,289.4158,70.6648,0,U,48843,999,27811,.30199804E-3,.7093E-4,0
TYVAK-0173,2021-059P,2026-06-11T04:30:46.100448,14.81870796,.00105937,96.0086,240.0358,57.4755,302.7485,0,U,48892,999,26735,.18872937E-3,.1462E-4,0
MANDRAKE 2 ABLE,2021-059AE,2026-06-11T13:48:02.778624,15.54766213,.00049227,97.7037,351.9327,26.3740,333.7763,0,U,48907,999,27625,.3116986E-3,.20645E-3,0
MANDRAKE 2 BAKER,2021-059AF,2026-06-11T12:33:08.585856,15.59276098,.00034247,97.7007,354.7092,28.3705,331.7736,0,U,48908,999,27641,.33472555E-3,.2624E-3,0
PACE-1,2021-059AG,2026-06-11T12:22:05.871936,15.78887858,.00006841,97.6761,0.0210,308.1771,51.9434,0,U,48909,999,27690,.47301534E-3,.83703E-3,0
YAM-3,2021-059AN,2026-06-11T13:47:15.101376,15.48432134,.00055151,97.6992,349.1639,29.5408,330.6153,0,U,48915,999,27612,.21265127E-3,.11188E-3,0
FARADAY_PHOENIX,2021-059AX,2026-06-11T12:11:34.293984,15.77019254,.00024259,97.6816,359.9107,329.9977,30.1149,0,U,48924,999,27676,.765608E-3,.125395E-2,0
DEMO8 (TENZING),2021-059CA,2026-06-11T12:19:43.609152,15.54781766,.00067718,97.7029,355.5025,16.5857,343.5616,0,U,48951,999,27642,.28894529E-3,.19146E-3,0
NAPA-2,2021-059CN,2026-06-11T14:59:52.212768,15.97154196,.00028868,97.6696,1.0200,244.5282,115.5696,0,U,48963,999,27692,.67958804E-3,.293368E-2,.36784383E-4
FENGYUN 3E,2021-062A,2026-06-11T15:14:07.413792,14.19904184,.00027762,98.7495,166.1045,94.6316,265.5177,0,U,49008,999,25579,.11508792E-3,.2E-5,0
ISS (NAUKA),2021-066A,2026-06-11T12:18:41.484960,15.49175527,.00051194,51.6332,328.1749,173.4651,186.6405,0,U,49044,999,57076,.16294015E-3,.8593E-4,0
STARLINK-3100,2021-082Q,2026-06-11T02:22:02.330976,14.98329279,.00032312,70.0001,58.9308,270.7873,89.2916,0,U,49144,999,25997,-.16970991E-3,-.2117E-4,0
CUTE,2021-088D,2026-06-11T05:13:04.634400,15.91463951,.00078049,97.4171,260.9418,241.5311,118.5177,0,U,49263,999,26160,.53187181E-3,.170126E-2,.12794597E-4
2021-091B,2021-091B,2026-06-11T15:45:35.450784,15.18526149,.00148328,97.4478,350.3162,62.8729,297.4016,0,U,49316,999,25814,.10375308E-3,.2079E-4,0
SDGSAT 1,2021-100A,2026-06-11T15:14:11.473728,15.19899417,.00067542,97.2645,209.7903,323.6724,36.4052,0,U,49387,999,25507,.72638385E-4,.1495E-4,0
TEIKYOSAT-4 (OORURI),2021-102B,2026-06-11T14:50:52.722528,15.09489641,.00108362,97.3672,192.3186,318.3974,41.6430,0,U,49396,999,25188,.11958203E-3,.1857E-4,0
Z-SAT,2021-102E,2026-06-11T14:18:00.195840,15.18219841,.00147669,97.3333,198.0884,266.6796,93.2749,0,U,49399,999,25259,.10726168E-3,.2133E-4,0
HIBARI,2021-102F,2026-06-11T14:00:20.641536,15.31616267,.00108066,97.3246,208.5508,212.0538,148.0048,0,U,49400,999,25333,.31562205E-3,.9577E-4,0
KOSEN-1,2021-102H,2026-06-11T13:42:00.804096,15.26757875,.00126282,97.3194,204.8372,221.2997,138.7288,0,U,49402,999,25316,.25296098E-3,.6597E-4,0
GLOBAL-14,2021-106A,2026-06-11T03:50:01.106592,15.50302998,.00167407,42.0052,326.8943,337.2624,22.7477,0,U,49469,999,25719,.39448248E-3,.22809E-3,0
GAOFEN-3 02,2021-109A,2026-06-11T15:17:54.097152,14.42216224,.00032839,98.4091,170.8130,30.4579,329.6801,0,U,49495,999,23951,.13261244E-4,0,0
GLOBAL-12,2021-115BA,2026-06-11T11:25:42.495456,15.53231408,.00033824,53.1954,71.9934,58.0826,302.0514,0,U,49772,999,25501,.50719792E-3,.32115E-3,0
GLOBAL-13,2021-115BB,2026-06-11T11:53:13.288416,15.45825362,.00041087,53.1976,81.6403,96.8633,263.2843,0,U,49773,999,25488,.40408602E-3,.19533E-3,0
GLOBAL-17,2021-120A,2026-06-11T11:46:23.601216,15.51955473,.00148871,41.9942,83.2302,219.7486,140.2269,0,U,49949,999,25401,.42884297E-3,.26333E-3,0
GLOBAL-16,2021-120B,2026-06-11T11:54:47.379744,15.49906392,.0012715,41.9943,86.8211,212.0870,147.9201,0,U,49950,999,25396,.42118958E-3,.23979E-3,0
XW-3 (CAS-9),2021-131B,2026-06-11T15:21:27.796320,14.41352663,.0005294,98.4973,255.0596,109.3206,250.8556,0,U,50466,999,23431,.14538948E-3,.427E-5,0
ION SCV-004,2022-002K,2026-06-11T14:40:52.690080,15.30396817,.00077654,97.2843,220.3748,26.9481,333.2162,0,U,50993,999,24444,.16611197E-3,.4811E-4,0
ETV-A1,2022-002CE,2026-06-11T14:56:51.180576,15.40565402,.00051574,97.2886,228.9442,23.5899,336.5584,0,U,51060,999,24498,.25288134E-3,.10201E-3,0
BRO-5,2022-002CF,2026-06-11T02:33:51.159168,15.47031967,.00041645,97.3005,235.7231,358.7499,1.3740,0,U,51061,999,24531,.54867038E-3,.27706E-3,0
