HAIYANG-2D              
1 48621U 21043A   26162.65348855 -.00000009  00000+0  65822-4 0  9998
2 48621  65.9995 318.4770 0011397 269.8027  90.1735 13.83375728255780
2021-050D               
1 48843U 21050D   26162.62070064  .00007093  00000+0  30200-3 0  9993
2 48843  97.3340 238.7836 0003992 289.4158  70.6648 15.23278320278115
TYVAK-0173              
1 48892U 21059P   26162.18803357  .00001462  00000+0  18873-3 0  9992
2 48892  96.0086 240.0358 0010593  57.4755 302.7485 14.81870796267358
MANDRAKE 2 ABLE         
1 48907U 21059AE  26162.57503216  .00020645  00000+0  31170-3 0  9992
2 48907  97.7037 351.9327 0004922  26.3740 333.7763 15.54766213276256
MANDRAKE 2 BAKER        
1 48908U 21059AF  26162.52301604  .00026240  00000+0  33473-3 0  9990
2 48908  97.7007 354.7092 0003424  28.3705 331.7736 15.59276098276411
PACE-1                  
1 48909U 21059AG  26162.51534574  .00083703  00000+0  47302-3 0  9997
2 48909  97.6761   0.0210 0000684 308.1771  51.9434 15.78887858276901
YAM-3                   
1 48915U 21059AN  26162.57448034  .00011188  00000+0  21265-3 0  9993
2 48915  97.6992 349.1639 0005515  29.5408 330.6153 15.48432134276124
FARADAY_PHOENIX         
1 48924U 21059AX  26162.50803581  .00125395  00000+0  76561-3 0  9993
2 48924  97.6816 359.9107 0002425 329.9977  30.1149 15.77019254276766
DEMO8 (TENZING)         
1 48951U 21059CA  26162.51369918  .00019146  00000+0  28895-3 0  9998
2 48951  97.7029 355.5025 0006771  16.5857 343.5616 15.54781766276420
NAPA-2                  
1 48963U 21059CN  26162.62490987  .00293368  36784-4  67959-3 0  9991
2 48963  97.6696   1.0200 0002886 244.5282 115.5696 15.97154196276926
FENGYUN 3E              
1 49008U 21062A   26162.63480803  .00000200  00000+0  11509-3 0  9991
2 49008  98.7495 166.1045 0002776  94.6316 265.5177 14.19904184255791
ISS (NAUKA)             
1 49044U 21066A   26162.51298015  .00008593  00000+0  16294-3 0  9993
2 49044  51.6332 328.1749 0005119 173.4651 186.6405 15.49175527570761
STARLINK-3100           
1 49144U 21082Q   26162.09863809 -.00002117  00000+0 -16971-3 0  9994
2 49144  70.0001  58.9308 0003231 270.7873  89.2916 14.98329279259979
CUTE                    
1 49263U 21088D   26162.21741475  .00170126  12795-4  53187-3 0  9993
2 49263  97.4171 260.9418 0007804 241.5311 118.5177 15.91463951261600
2021-091B               
1 49316U 21091B   26162.65666031  .00002079  00000+0  10375-3 0  9992
2 49316  97.4478 350.3162 0014832  62.8729 297.4016 15.18526149258147
SDGSAT 1                
1 49387U 21100A   26162.63485502  .00001495  00000+0  72638-4 0  9993
2 49387  97.2645 209.7903 0006754 323.6724  36.4052 15.19899417255078
TEIKYOSAT-4 (OORURI)    
1 49396U 21102B   26162.61866577  .00001857  00000+0  11958-3 0  9997
2 49396  97.3672 192.3186 0010836 318.3974  41.6430 15.09489641251889
Z-SAT                   
1 49399U 21102E   26162.59583560  .00002133  00000+0  10726-3 0  9995
2 49399  97.3333 198.0884 0014766 266.6796  93.2749 15.18219841252595
HIBARI                  
1 49400U 21102F   26162.58357224  .00009577  00000+0  31562-3 0  9993
2 49400  97.3246 208.5508 0010806 212.0538 148.0048 15.31616267253333
KOSEN-1                 
1 49402U 21102H   26162.57084264  .00006597  00000+0  25296-3 0  9991
2 49402  97.3194 204.8372 0012628 221.2997 138.7288 15.26757875253168
GLOBAL-14               
1 49469U 21106A   26162.15973503  .00022809  00000+0  39448-3 0  9993
2 49469  42.0052 326.8943 0016740 337.2624  22.7477 15.50302998257192
GAOFEN-3 02             
1 49495U 21109A   26162.63743168  .00000000  00000+0  13261-4 0  9995
2 49495  98.4091 170.8130 0003283  30.4579 329.6801 14.42216224239515
GLOBAL-12               
1 49772U 21115BA  26162.47618629  .00032115  00000+0  50720-3 0  9997
2 49772  53.1954  71.9934 0003382  58.0826 302.0514 15.53231408255016
GLOBAL-13               
1 49773U 21115BB  26162.49529269  .00019533  00000+0  40409-3 0  9993
2 49773  53.1976  81.6403 0004108  96.8633 263.2843 15.45825362254889
GLOBAL-17               
1 49949U 21120A   26162.49055094  .00026333  00000+0  42884-3 0  9999
2 49949  41.9942  83.2302 0014887 219.7486 140.2269 15.51955473254010
GLOBAL-16               
1 49950U 21120B   26162.49638171  .00023979  00000+0  42119-3 0  9998
2 49950  41.9943  86.8211 0012715 212.0870 147.9201 15.49906392253968
XW-3 (CAS-9)            
1 50466U 21131B   26162.63990505  .00000427  00000+0  14539-3 0  9990
2 50466  98.4973 255.0596 0005294 109.3206 250.8556 14.41352663234315
ION SCV-004             
1 50993U 22002K   26162.61172095  .00004811  00000+0  16611-3 0  9991
2 50993  97.2843 220.3748 0007765  26.9481 333.2162 15.30396817244443
ETV-A1                  
1 51060U 22002CE  26162.62281459  .00010201  00000+0  25288-3 0  9993
2 51060  97.2886 228.9442 0005157  23.5899 336.5584 15.40565402244982
BRO-5                   
1 51061U 22002CF  26162.10684212  .00027706  00000+0  54867-3 0  9994
2 51061  97.3005 235.7231 0004164 358.7499   1.3740 15.47031967245315
